     2.11           N: GPS NAV DATA                         RINEX VERSION / TYPE
teqc  2019Feb7      UNAVCO Archive Ops  20190217 00:33:49UTCPGM / RUN BY / DATE
Solaris x86 5.10|AMD64|cc SC5.8 -xarch=amd64|=+|=+          COMMENT
    8.3819D-09 -7.4506D-09 -5.9605D-08  5.9605D-08          ION ALPHA
    8.8064D+04 -1.6384D+04 -1.9661D+05  6.5536D+04          ION BETA
    3.725290298462D-09 1.154631945610D-14    61440     2041 DELTA-UTC: A0,A1,T,W
                                                            END OF HEADER
 7 19  2 16 12  0  0.0 3.149174153805D-05-7.275957614183D-12 0.000000000000D+00
    1.300000000000D+01 1.875000000000D+00 4.689481049995D-09-9.103599835074D-01
    3.725290298462D-09 1.222681626678D-02 9.708106517792D-06 5.153605401993D+03
    5.616000000000D+05 2.495944499969D-07 2.049059729985D+00 1.192092895508D-07
    9.559426090639D-01 1.888437500000D+02-2.478504453830D+00-8.069621846426D-09
   -7.682462862558D-10 1.000000000000D+00 2.040000000000D+03 0.000000000000D+00
    2.000000000000D+00 0.000000000000D+00-1.117587089539D-08 1.300000000000D+01
    5.544180000000D+05 4.000000000000D+00
29 19  2 16 12  0  0.0 2.692718990147D-04-8.640199666843D-12 0.000000000000D+00
    1.300000000000D+02 1.875000000000D+01 4.124814672231D-09 2.703457053815D+00
    9.983777999878D-07 6.933097029105D-04 1.549720764160D-06 5.153563417435D+03
    5.616000000000D+05 1.490116119385D-08-2.092195929341D+00-1.862645149231D-09
    9.851550862237D-01 3.620937500000D+02 1.447049084180D+00-8.187126740977D-09
    1.432202514126D-10 1.000000000000D+00 2.040000000000D+03 0.000000000000D+00
    2.000000000000D+00 0.000000000000D+00-1.024454832077D-08 1.300000000000D+02
    5.544180000000D+05 4.000000000000D+00
13 19  2 16 11 59 44.0-7.475074380636D-05 1.250555214938D-12 0.000000000000D+00
    1.000000000000D+01 6.781250000000D+00 4.941991568071D-09 7.792628810040D-01
    4.172325134277D-07 3.712158184499D-03 5.636364221573D-06 5.153653898239D+03
    5.615840000000D+05-4.470348358154D-08 1.107835705027D+00 7.450580596924D-08
    9.678343219557D-01 2.753437500000D+02 1.369046208807D+00-8.237485981498D-09
    2.607251459631D-11 1.000000000000D+00 2.040000000000D+03 0.000000000000D+00
    2.000000000000D+00 0.000000000000D+00-1.117587089539D-08 1.000000000000D+01
    5.548260000000D+05 4.000000000000D+00
30 19  2 16 12  0  0.0-5.363533273339D-05-6.366462912410D-12 0.000000000000D+00
    8.000000000000D+01-3.718750000000D+00 4.906632952386D-09-8.959452621164D-01
   -3.073364496231D-07 3.671233076602D-03 9.883195161819D-06 5.153623821259D+03
    5.616000000000D+05 5.587935447693D-08 2.078740756399D+00-1.322478055954D-07
    9.414544257786D-01 1.788437500000D+02-3.024903632292D+00-8.128552872569D-09
   -7.314590396336D-10 1.000000000000D+00 2.040000000000D+03 0.000000000000D+00
    2.800000000000D+00 0.000000000000D+00 3.725290298462D-09 8.000000000000D+01
    5.574420000000D+05 4.000000000000D+00
18 19  2 16 11 59 44.0 2.652639523149D-05 3.751665644813D-12 0.000000000000D+00
    3.000000000000D+00-1.369062500000D+02 4.831629828205D-09-5.165350678503D-01
   -7.124617695808D-06 1.505148620345D-02 6.522983312607D-06 5.153737417221D+03
    5.615840000000D+05-1.173466444016D-07-1.155578463716D+00 1.396983861923D-07
    9.527145588998D-01 2.549375000000D+02 1.374414724633D+00-8.631430962317D-09
   -1.214336296267D-10 1.000000000000D+00 2.040000000000D+03 0.000000000000D+00
    2.000000000000D+00 0.000000000000D+00-6.053596735001D-09 3.000000000000D+00
    5.575020000000D+05 4.000000000000D+00
32 19  2 16 12  0  0.0-2.240678295493D-04 1.875832822407D-11 0.000000000000D+00
    1.000000000000D+02 1.331250000000D+01 5.052353307938D-09 2.629133863601D+00
    6.575137376785D-07 2.590622869320D-03 6.068497896194D-06 5.153746051788D+03
    5.616000000000D+05-5.029141902924D-08 9.783337552307D-01-2.793967723846D-08
    9.567079200279D-01 2.607187500000D+02-2.613812061318D+00-8.177483482154D-09
    9.536111503035D-11 1.000000000000D+00 2.040000000000D+03 0.000000000000D+00
    2.000000000000D+00 0.000000000000D+00 4.656612873077D-10 1.000000000000D+02
    5.595180000000D+05 4.000000000000D+00
11 19  2 16 12  0  0.0-6.593456491828D-04 6.025402399246D-12 0.000000000000D+00
    3.800000000000D+01-1.039687500000D+02 6.054180752358D-09-9.845222337142D-01
   -5.297362804413D-06 1.654901937582D-02 2.149492502213D-06 5.153686519623D+03
    5.616000000000D+05-2.533197402954D-07-1.547168147341D+00 3.911554813385D-08
    9.081366362218D-01 3.143750000000D+02 1.862410348341D+00-9.372533260774D-09
   -2.857261873569D-11 1.000000000000D+00 2.040000000000D+03 0.000000000000D+00
    2.000000000000D+00 0.000000000000D+00-1.210719347000D-08 3.800000000000D+01
    5.599620000000D+05 4.000000000000D+00
 8 19  2 16 14  0  0.0-1.329695805907D-04-1.364242052659D-12 0.000000000000D+00
    6.000000000000D+01 3.843750000000D+01 4.493401453921D-09-3.025557523027D+00
    2.129003405571D-06 4.278503009118D-03 1.057982444763D-06 5.153697576523D+03
    5.688000000000D+05-5.774199962616D-08-2.169391699643D+00-3.166496753693D-08
    9.700717951783D-01 3.644375000000D+02-3.479176349317D-01-8.404992958836D-09
    1.860791795162D-10 1.000000000000D+00 2.040000000000D+03 0.000000000000D+00
    2.000000000000D+00 0.000000000000D+00 5.122274160385D-09 6.000000000000D+01
    5.616180000000D+05 4.000000000000D+00
32 19  2 16 14  0  0.0-2.239327877760D-04 1.875832822407D-11 0.000000000000D+00
    1.010000000000D+02 1.390625000000D+01 5.119498961967D-09-2.603913697195D+00
    7.674098014832D-07 2.590515185148D-03 5.990266799927D-06 5.153746255875D+03
    5.688000000000D+05 1.676380634308D-08 9.782742832220D-01-1.285225152969D-07
    9.567084539930D-01 2.611875000000D+02-2.613808937988D+00-8.258558287816D-09
    1.517920370333D-10 1.000000000000D+00 2.040000000000D+03 0.000000000000D+00
    2.000000000000D+00 0.000000000000D+00 4.656612873077D-10 1.010000000000D+02
    5.616180000000D+05 4.000000000000D+00
21 19  2 16 14  0  0.0-2.490598708391D-04 7.162270776462D-12 0.000000000000D+00
    1.260000000000D+02-1.056875000000D+02 4.890203696613D-09-9.917371847602D-01
   -5.304813385010D-06 2.476222603582D-02 6.260350346565D-06 5.153796291351D+03
    5.688000000000D+05-4.265457391739D-07-1.164225677393D+00 2.328306436539D-07
    9.470163349859D-01 2.586250000000D+02-1.476445537917D+00-8.751435961007D-09
   -1.000041655749D-11 1.000000000000D+00 2.040000000000D+03 0.000000000000D+00
    2.000000000000D+00 0.000000000000D+00-1.024454832077D-08 1.260000000000D+02
    5.616180000000D+05 4.000000000000D+00
16 19  2 16 14  0  0.0-1.960154622793D-05-2.501110429876D-12 0.000000000000D+00
    3.400000000000D+01 1.194687500000D+02 3.700868441740D-09-2.474353305284D+00
    6.113201379776D-06 1.058569119778D-02 8.856877684593D-06 5.153780685425D+03
    5.688000000000D+05 2.421438694000D-08-3.117453911337D+00-7.078051567078D-08
    9.846470747544D-01 2.234687500000D+02 5.399373625127D-01-7.582101539249D-09
    1.300054152474D-10 1.000000000000D+00 2.040000000000D+03 0.000000000000D+00
    2.000000000000D+00 0.000000000000D+00-1.071020960808D-08 3.400000000000D+01
    5.616180000000D+05 4.000000000000D+00
10 19  2 16 14  0  0.0 1.155831851065D-04-7.617018127348D-12 0.000000000000D+00
    9.300000000000D+01-2.940625000000D+01 4.364467511876D-09-1.275861296881D+00
   -1.601874828339D-06 4.323619417846D-03 1.128762960434D-05 5.153665744781D+03
    5.688000000000D+05 4.470348358154D-08-6.349618471096D-02-6.332993507385D-08
    9.628679096447D-01 1.610937500000D+02-2.752398960602D+00-7.802110703513D-09
    5.171643991159D-10 1.000000000000D+00 2.040000000000D+03 0.000000000000D+00
    2.000000000000D+00 0.000000000000D+00 1.862645149231D-09 9.300000000000D+01
    5.616180000000D+05 4.000000000000D+00
27 19  2 16 14  0  0.0-6.880238652229D-05-7.389644451905D-12 0.000000000000D+00
    4.500000000000D+01 3.387500000000D+01 4.255534402946D-09 2.944906561122D+00
    1.804903149605D-06 6.680884864181D-03 1.586973667145D-06 5.153634202957D+03
    5.688000000000D+05-1.676380634308D-08-2.158823627715D+00-1.229345798492D-07
    9.783257545317D-01 3.596250000000D+02 4.284415760485D-01-8.220699567991D-09
    1.996511734156D-10 1.000000000000D+00 2.040000000000D+03 0.000000000000D+00
    2.000000000000D+00 0.000000000000D+00 1.396983861923D-09 4.500000000000D+01
    5.616180000000D+05 4.000000000000D+00
20 19  2 16 14  0  0.0 5.222638137639D-04 3.410605131648D-13 0.000000000000D+00
    1.260000000000D+02-5.012500000000D+01 5.064496670900D-09 4.578397531034D-01
   -2.630054950714D-06 4.409437300637D-03 1.120567321777D-05 5.153678297043D+03
    5.688000000000D+05-2.793967723846D-08-1.785360555319D-01-8.754432201386D-08
    9.304441663800D-01 1.481875000000D+02 2.277815245496D+00-8.251057975398D-09
    4.210889686172D-10 1.000000000000D+00 2.040000000000D+03 0.000000000000D+00
    2.000000000000D+00 0.000000000000D+00-8.381903171539D-09 1.260000000000D+02
    5.616180000000D+05 4.000000000000D+00
15 19  2 16 14  0  0.0-3.275857307017D-04 1.705302565824D-12 0.000000000000D+00
    4.400000000000D+01 2.278125000000D+01 5.829528537548D-09 2.048140101645D+00
    1.059845089912D-06 1.121141959447D-02 6.170943379402D-06 5.153628677368D+03
    5.688000000000D+05-2.905726432800D-07 8.945474438917D-01-1.452863216400D-07
    9.280017602782D-01 2.456562500000D+02 7.626862592755D-01-8.540712897831D-09
    3.185846989029D-10 1.000000000000D+00 2.040000000000D+03 0.000000000000D+00
    2.000000000000D+00 0.000000000000D+00-1.071020960808D-08 4.400000000000D+01
    5.616180000000D+05 4.000000000000D+00
